NORAD_CAT_ID,OBJECT_NAME,OBJECT_TYPE,EPOCH,MEAN_MOTION,ECCENTRICITY,INCLINATION,RA_OF_ASC_NODE,ARG_OF_PERICENTER,MEAN_ANOMALY,BSTAR,MEAN_MOTION_DOT,MEAN_MOTION_DDOT,TLE_LINE0,TLE_LINE1,TLE_LINE2,SEMIMAJOR_AXIS,PERIOD,APOGEE,PERIGEE,DECAYED
53732.0,STARLINK-4661,PAYLOAD,2023-11-14 13:07:44,15.0883133,0.0001456,53.2195,92.6879,97.4105,262.7053,1.9417e-05,2.1e-07,0.0,0 STARLINK-4661,1 53732U 22107AJ  23318.54704441  .00000021  00000-0  19417-4 0  9997,2 53732  53.2195  92.6879 0001456  97.4105 262.7053 15.08831330 66818,6917.907,95.438,540.779,538.765,0.0
53732.0,STARLINK-4661,PAYLOAD,2023-11-14 22:40:03,15.08838673,0.0001495,53.2195,90.9031,102.6131,257.5028,7.5841e-05,9.19e-06,0.0,0 STARLINK-4661,1 53732U 22107AJ  23318.94447935  .00000919  00000-0  75841-4 0  9992,2 53732  53.2195  90.9031 0001495 102.6131 257.5028 15.08838673 66877,6917.884,95.438,540.784,538.715,0.0
53732.0,STARLINK-4661,PAYLOAD,2023-11-15 12:58:31,15.08840347,0.0001315,53.218,88.2245,96.7848,263.3294,3.7049e-05,3.02e-06,0.0,0 STARLINK-4661,1 53732U 22107AJ  23319.54064053  .00000302  00000-0  37049-4 0  9999,2 53732  53.2180  88.2245 0001315  96.7848 263.3294 15.08840347 66968,6917.879,95.438,540.654,538.835,0.0
53732.0,STARLINK-4661,PAYLOAD,2023-11-15 17:44:40,15.08847633,0.0001358,53.2179,87.332,97.1902,262.9244,9.7157e-05,1.259e-05,0.0,0 STARLINK-4661,1 53732U 22107AJ  23319.73935384  .00001259  00000-0  97157-4 0  9992,2 53732  53.2179  87.3320 0001358  97.1902 262.9244 15.08847633 66395,6917.857,95.437,540.662,538.783,0.0
53732.0,STARLINK-4661,PAYLOAD,2023-11-16 08:03:09,15.08829955,0.0001796,53.218,84.6587,99.2247,260.8948,5.9133e-05,6.53e-06,0.0,0 STARLINK-4661,1 53732U 22107AJ  23320.33552566  .00000653  00000-0  59133-4 0  9996,2 53732  53.2180  84.6587 0001796  99.2247 260.8948 15.08829955 66488,6917.911,95.438,541.019,538.534,0.0
53732.0,STARLINK-4661,PAYLOAD,2023-11-17 07:53:56,15.08841167,0.0001449,53.2174,80.1976,107.7267,252.3883,8.5604e-05,1.075e-05,0.0,0 STARLINK-4661,1 53732U 22107AJ  23321.32912460  .00001075  00000-0  85604-4 0  9990,2 53732  53.2174  80.1976 0001449 107.7267 252.3883 15.08841167 66636,6917.877,95.437,540.744,538.739,0.0
53732.0,STARLINK-4661,PAYLOAD,2023-11-17 14:15:29,15.08830888,0.0001323,53.217,79.0093,106.1235,253.9903,0.0003289,4.949e-05,0.0,0 STARLINK-4661,1 53732U 22107AJ  23321.59408631  .00004949  00000-0  32890-3 0  9990,2 53732  53.2170  79.0093 0001323 106.1235 253.9903 15.08830888 67277,6917.908,95.438,540.688,538.858,0.0
53732.0,STARLINK-4661,PAYLOAD,2023-11-18 12:30:52,15.08844121,0.0001518,53.2162,74.8462,90.9494,269.1672,0.00017214,2.453e-05,0.0,0 STARLINK-4661,1 53732U 22107AJ  23322.52144278  .00002453  00000-0  17214-3 0  9999,2 53732  53.2162  74.8462 0001518  90.9494 269.1672 15.08844121 66810,6917.868,95.437,540.783,538.683,0.0
53732.0,STARLINK-4661,PAYLOAD,2023-11-18 14:06:15,15.08845268,0.0001454,53.216,74.5484,91.5784,268.5375,0.00018901,2.722e-05,0.0,0 STARLINK-4661,1 53732U 22107AJ  23322.58768170  .00002722  00000-0  18901-3 0  9991,2 53732  53.2160  74.5484 0001454  91.5784 268.5375 15.08845268 67421,6917.864,95.437,540.735,538.723,0.0
53732.0,STARLINK-4661,PAYLOAD,2023-11-18 17:17:01,15.08847263,0.0001481,53.2169,73.9532,94.6888,265.4273,0.00016549,2.347e-05,0.0,0 STARLINK-4661,1 53732U 22107AJ  23322.72016074  .00002347  00000-0  16549-3 0  9995,2 53732  53.2169  73.9532 0001481  94.6888 265.4273 15.08847263 67448,6917.858,95.437,540.748,538.699,0.0
53732.0,STARLINK-4661,PAYLOAD,2023-11-19 10:46:16,15.08844076,0.0001629,53.2161,70.6803,99.7326,260.385,3.9519e-05,3.41e-06,0.0,0 STARLINK-4661,1 53732U 22107AJ  23323.44880373  .00000341  00000-0  39519-4 0  9991,2 53732  53.2161  70.6803 0001629  99.7326 260.3850 15.08844076 66951,6917.868,95.437,540.86,538.606,0.0
53732.0,STARLINK-4661,PAYLOAD,2023-11-19 13:57:03,15.08842776,0.0001497,53.2183,70.088,84.6002,275.5161,3.0247e-05,1.93e-06,0.0,0 STARLINK-4661,1 53732U 22107AJ  23323.58128518  .00000193  00000-0  30247-4 0  9996,2 53732  53.2183  70.0880 0001497  84.6002 275.5161 15.08842776 67578,6917.872,95.437,540.773,538.701,0.0
53732.0,STARLINK-4661,PAYLOAD,2023-11-20 13:47:49,15.0884957,0.0001347,53.2186,65.6286,93.8953,266.2193,3.1815e-05,2.19e-06,0.0,0 STARLINK-4661,1 53732U 22107AJ  23324.57487895  .00000219  00000-0  31815-4 0  9993,2 53732  53.2186  65.6286 0001347  93.8953 266.2193 15.08849570 67720,6917.851,95.437,540.648,538.784,0.0
53732.0,STARLINK-4661,PAYLOAD,2023-11-21 10:27:50,15.08841782,0.0001263,53.2188,61.7637,95.3722,264.7414,8.7142e-05,1.099e-05,0.0,0 STARLINK-4661,1 53732U 22107AJ  23325.43600221  .00001099  00000-0  87142-4 0  9990,2 53732  53.2188  61.7637 0001263  95.3722 264.7414 15.08841782 67251,6917.875,95.437,540.614,538.866,0.0
53732.0,STARLINK-4661,PAYLOAD,2023-11-21 13:38:36,15.08846672,0.0001276,53.2188,61.1691,95.3406,264.7731,0.0001276,1.744e-05,0.0,0 STARLINK-4661,1 53732U 22107AJ  23325.56847834  .00001744  00000-0  12760-3 0  9997,2 53732  53.2188  61.1691 0001276  95.3406 264.7731 15.08846672 67871,6917.86,95.437,540.608,538.842,0.0
53732.0,STARLINK-4661,PAYLOAD,2023-11-21 16:49:22,15.08847526,0.0001295,53.2188,60.5741,93.7952,266.3188,0.00013393,1.845e-05,0.0,0 STARLINK-4661,1 53732U 22107AJ  23325.70095765  .00001845  00000-0  13393-3 0  9996,2 53732  53.2188  60.5741 0001295  93.7952 266.3188 15.08847526 67894,6917.857,95.437,540.618,538.827,0.0
53732.0,STARLINK-4661,PAYLOAD,2023-11-22 11:54:00,15.08848389,0.0001577,53.2177,57.0047,106.7792,253.3374,8.5167e-05,1.068e-05,0.0,0 STARLINK-4661,1 53732U 22107AJ  23326.49583434  .00001068  00000-0  85167-4 0  9994,2 53732  53.2177  57.0047 0001577 106.7792 253.3374 15.08848389 67411,6917.855,95.437,540.811,538.629,0.0
53732.0,STARLINK-4661,PAYLOAD,2023-11-22 13:29:23,15.08852265,0.000149,53.218,56.7079,99.6952,260.4209,0.00014678,2.05e-05,0.0,0 STARLINK-4661,1 53732U 22107AJ  23326.56207246  .00002050  00000-0  14678-3 0  9996,2 53732  53.2180  56.7079 0001490  99.6952 260.4209 15.08852265 68020,6917.843,95.437,540.739,538.677,0.0
53732.0,STARLINK-4661,PAYLOAD,2023-11-23 11:44:47,15.08835522,0.0001426,53.2184,52.5426,98.3095,261.8059,-7.8743e-05,-1.541e-05,0.0,0 STARLINK-4661,1 53732U 22107AJ  23327.48944246 -.00001541  00000-0 -78743-4 0  9996,2 53732  53.2184  52.5426 0001426  98.3095 261.8059 15.08835522 67560,6917.894,95.438,540.746,538.773,0.0
53732.0,STARLINK-4661,PAYLOAD,2023-11-23 13:20:10,15.08837272,0.0001474,53.2186,52.2448,94.6718,265.4443,-4.0013e-05,-9.25e-06,0.0,0 STARLINK-4661,1 53732U 22107AJ  23327.55568237 -.00000925  00000-0 -40013-4 0  9990,2 53732  53.2186  52.2448 0001474  94.6718 265.4443 15.08837272 68176,6917.889,95.438,540.773,538.734,0.0
53732.0,STARLINK-4661,PAYLOAD,2023-11-23 14:55:33,15.08838881,0.0001452,53.2185,51.9478,100.3081,259.8075,-1.4941e-05,-5.26e-06,0.0,0 STARLINK-4661,1 53732U 22107AJ  23327.62192126 -.00000526  00000-0 -14941-4 0  9996,2 53732  53.2185  51.9478 0001452 100.3081 259.8075 15.08838881 68184,6917.884,95.438,540.753,538.744,0.0
53732.0,STARLINK-4661,PAYLOAD,2023-11-24 13:10:58,15.08836521,0.0001697,53.2194,47.7865,99.5995,260.5189,4.6615e-06,-2.14e-06,0.0,0 STARLINK-4661,1 53732U 22107AJ  23328.54928959 -.00000214  00000-0  46615-5 0  9996,2 53732  53.2194  47.7865 0001697  99.5995 260.5189 15.08836521 68321,6917.891,95.438,540.93,538.582,0.0
53732.0,STARLINK-4661,PAYLOAD,2023-11-24 14:46:21,15.0884101,0.0001587,53.2193,47.4853,92.7866,267.3308,4.5098e-05,4.3e-06,0.0,0 STARLINK-4661,1 53732U 22107AJ  23328.61552796  .00000430  00000-0  45098-4 0  9998,2 53732  53.2193  47.4853 0001587  92.7866 267.3308 15.08841010 67735,6917.877,95.437,540.84,538.644,0.0
53732.0,STARLINK-4661,PAYLOAD,2023-11-25 11:26:22,15.08845817,0.00017,53.2178,43.6266,79.6976,280.4207,0.00025721,3.808e-05,0.0,0 STARLINK-4661,1 53732U 22107AJ  23329.47664991  .00003808  00000-0  25721-3 0  9996,2 53732  53.2178  43.6266 0001700  79.6976 280.4207 15.08845817 68461,6917.863,95.437,540.904,538.552,0.0
53732.0,STARLINK-4661,PAYLOAD,2023-11-25 14:37:08,15.08859766,0.0001705,53.2202,43.025,106.26,253.858,0.00047381,7.265e-05,0.0,0 STARLINK-4661,1 53732U 22107AJ  23329.60912215  .00007265  00000-0  47381-3 0  9993,2 53732  53.2202  43.0250 0001705 106.2600 253.8580 15.08859766 68480,6917.82,95.436,540.864,538.505,0.0
53732.0,STARLINK-4661,PAYLOAD,2023-11-26 11:17:08,15.08858453,0.0001714,53.2185,39.1625,83.5174,276.6013,0.00026302,3.902e-05,0.0,0 STARLINK-4661,1 53732U 22107AJ  23330.47023794  .00003902  00000-0  26302-3 0  9999,2 53732  53.2185  39.1625 0001714  83.5174 276.6013 15.08858453 68010,6917.824,95.436,540.875,538.503,0.0
53732.0,STARLINK-4661,PAYLOAD,2023-11-27 11:07:57,15.08813558,0.0001576,53.2188,34.6985,95.7453,264.3718,-0.00050316,-8.281e-05,0.0,0 STARLINK-4661,1 53732U 22107AJ  23331.46386331 -.00008281  00000-0 -50316-3 0  9997,2 53732  53.2188  34.6985 0001576  95.7453 264.3718 15.08813558 68162,6917.961,95.439,540.916,538.736,0.0
53732.0,STARLINK-4661,PAYLOAD,2023-11-27 14:18:44,15.08813395,0.0001612,53.2191,34.1047,98.8886,261.2289,-0.00044694,-7.389e-05,0.0,0 STARLINK-4661,1 53732U 22107AJ  23331.59634592 -.00007389  00000-0 -44694-3 0  9996,2 53732  53.2191  34.1047 0001612  98.8886 261.2289 15.08813395 68781,6917.962,95.439,540.942,538.712,0.0
53732.0,STARLINK-4661,PAYLOAD,2023-11-27 23:51:03,15.08821323,0.0001725,53.2184,32.3281,60.1271,299.9893,-0.00014827,-2.646e-05,0.0,0 STARLINK-4661,1 53732U 22107AJ  23331.99378769 -.00002646  00000-0 -14827-3 0  9997,2 53732  53.2184  32.3281 0001725  60.1271 299.9893 15.08821323 68248,6917.937,95.439,540.996,538.609,0.0
53732.0,STARLINK-4661,PAYLOAD,2023-11-28 09:23:21,15.08840292,0.0001871,53.2195,30.5459,91.6304,268.4902,3.5237e-05,2.73e-06,0.0,0 STARLINK-4661,1 53732U 22107AJ  23332.39121783  .00000273  00000-0  35237-4 0  9995,2 53732  53.2195  30.5459 0001871  91.6304 268.4902 15.08840292 68300,6917.879,95.438,541.039,538.45,0.0
